[{"OBJECT_NAME":"STARLINK-30834","OBJECT_ID":"2023-166B","EPOCH":"2026-03-09T16:27:46.258848","MEAN_MOTION":15.30204498,"ECCENTRICITY":7.025e-5,"INCLINATION":53.1599,"RA_OF_ASC_NODE":219.7703,"ARG_OF_PERICENTER":115.4663,"MEAN_ANOMALY":244.641,"EPHEMERIS_TYPE":0,"CLASSIFICATION_TYPE":"U","NORAD_CAT_ID":58151,"ELEMENT_SET_NO":999,"REV_AT_EPOCH":13317,"BSTAR":0.00068653531,"MEAN_MOTION_DOT":0.00020032,"MEAN_MOTION_DDOT":0},{"OBJECT_NAME":"CZ-3A DEB","OBJECT_ID":"2007-003F","EPOCH":"2026-03-08T22:21:20.508768","MEAN_MOTION":14.58467105,"ECCENTRICITY":0.0649924,"INCLINATION":24.4834,"RA_OF_ASC_NODE":279.0209,"ARG_OF_PERICENTER":309.693,"MEAN_ANOMALY":44.7989,"EPHEMERIS_TYPE":0,"CLASSIFICATION_TYPE":"U","NORAD_CAT_ID":35547,"ELEMENT_SET_NO":999,"REV_AT_EPOCH":3882,"BSTAR":0.013221525,"MEAN_MOTION_DOT":0.02115259,"MEAN_MOTION_DDOT":0.00076423761}]
